{
  "type": "FeatureCollection",
  "features": [
    {
      "type": "Feature",
      "properties": {
        "state": "Kentucky",
        "county": "Wolfe",
        "city": "Campton",
        "zip_code": "41301",
        "road": "KY-15",
        "address": "100 KY-15, Campton, KY 41301"
      },
      "geometry": { "type": "Point", "coordinates": [-83.5477, 37.7348, 301] }
    },
    {
      "type": "Feature",
      "properties": {
        "state": "Kentucky",
        "county": "Wolfe",
        "city": "Campton",
        "zip_code": "41301",
        "road": "Washington St",
        "address": "12 Washington St, Campton, KY 41301"
      },
      "geometry": { "type": "Point", "coordinates": [-83.5491, 37.7356, 298] }
    },
    {
      "type": "Feature",
      "properties": {
        "state": "Kentucky",
        "county": "Breathitt",
        "city": "Jackson",
        "zip_code": "41339",
        "road": "KY-15",
        "address": "440 KY-15, Jackson, KY 41339"
      },
      "geometry": { "type": "Point", "coordinates": [-83.3835, 37.5531, 240] }
    }
  ]
}
